{
    "links": {
        "self": "http://www.neowsapp.com/rest/v1/neo/3799763?api_key=iIulBulltgU6a56xZRHN4H3l9WmuAYTsLGpBGhQ2"
    },
    "id": "3799763",
    "neo_reference_id": "3799763",
    "name": "(2018 DD4)",
    "designation": "2018 DD4",
    "nasa_jpl_url": "http://ssd.jpl.nasa.gov/sbdb.cgi?sstr=3799763",
    "absolute_magnitude_h": 20.3,
    "estimated_diameter": {
        "kilometers": {
            "estimated_diameter_min": 0.2315021222,
            "estimated_diameter_max": 0.5176544822
        },
        "meters": {
            "estimated_diameter_min": 231.5021222103,
            "estimated_diameter_max": 517.6544821978
        },
        "miles": {
            "estimated_diameter_min": 0.1438487052,
            "estimated_diameter_max": 0.3216554833
        },
        "feet": {
            "estimated_diameter_min": 759.5214226325,
            "estimated_diameter_max": 1698.3415313737
        }
    },
    "is_potentially_hazardous_asteroid": false,
    "close_approach_data": [
        {
            "close_approach_date": "2018-02-16",
            "close_approach_date_full": "2018-Feb-16 18:40",
            "epoch_date_close_approach": 1518806400000,
            "relative_velocity": {
                "kilometers_per_second": "19.8043459255",
                "kilometers_per_hour": "71295.6453319588",
                "miles_per_hour": "44300.3414008496"
            },
            "miss_distance": {
                "astronomical": "0.2456090233",
                "lunar": "95.5419100637",
                "kilometers": "36742586.738460371",
                "miles": "22830784.7217242798"
            },
            "orbiting_body": "Earth"
        }
    ],
    "orbital_data": {
        "orbit_id": "5",
        "orbit_determination_date": "2018-03-18 06:43:36",
        "first_observation_date": "2018-02-27",
        "last_observation_date": "2018-03-17",
        "data_arc_in_days": 18,
        "observations_used": 30,
        "orbit_uncertainty": "7",
        "minimum_orbit_intersection": ".0851589",
        "jupiter_tisserand_invariant": "3.793",
        "epoch_osculation": "2459000.5",
        "eccentricity": ".4076126163232314",
        "semi_major_axis": "1.782136702762344",
        "inclination": "35.17981600236449",
        "ascending_node_longitude": "318.3261523040782",
        "orbital_period": "868.9803352738874",
        "perihelion_distance": "1.055715298703728",
        "perihelion_argument": "199.1543770450046",
        "aphelion_distance": "2.50855810682096",
        "perihelion_time": "2459056.603955263789",
        "mean_anomaly": "336.7573291648788",
        "mean_motion": ".41427864979998",
        "equinox": "J2000",
        "orbit_class": {
            "orbit_class_type": "AMO",
            "orbit_class_description": "Near-Earth asteroid orbits similar to that of 1221 Amor",
            "orbit_class_range": "1.017 AU < q (perihelion) < 1.3 AU"
        }
    },
    "is_sentry_object": false
}